GPS BIIA-10 (PRN 32)    
1 20959U 90103A   15364.27300900  .00000053  00000-0  00000+0 0  9995
2 20959  54.2503 186.3012 0113235  10.5163 349.7326  2.00567535183771
GPS BIIR-2  (PRN 13)    
1 24876U 97035A   15364.08853921 -.00000012  00000-0  00000+0 0  9999
2 24876  55.7183 248.2041 0044530 115.8610 244.6759  2.00562308135098
GPS BIIR-3  (PRN 11)    
1 25933U 99055A   15364.23409175 -.00000031  00000-0  00000+0 0  9994
2 25933  51.2903 101.1372 0160383  85.4391 303.5666  2.00566058118911
GPS BIIR-4  (PRN 20)    
1 26360U 00025A   15364.51465192  .00000055  00000-0  00000+0 0  9995
2 26360  53.0709 177.1881 0047933  74.0409 261.8300  2.00562356114618
GPS BIIR-5  (PRN 28)    
1 26407U 00040A   15364.34318439 -.00000078  00000-0  00000+0 0  9992
2 26407  56.6952   5.9878 0202335 266.3586 222.1938  2.00560949113289
GPS BIIR-6  (PRN 14)    
1 26605U 00071A   15364.40545549 -.00000011  00000-0  00000+0 0  9994
2 26605  55.2877 246.1249 0085247 248.9988 220.1488  2.00559986110884
GPS BIIR-7  (PRN 18)    
1 26690U 01004A   15364.56317248  .00000055  00000-0  00000+0 0  9992
2 26690  52.9999 180.1671 0166590 250.1165  66.6138  2.00565484109294
GPS BIIR-8  (PRN 16)    
1 27663U 03005A   15364.23947175 -.00000078  00000-0  00000+0 0  9994
2 27663  56.7716   5.6984 0082736  16.3558 162.1506  2.00563353 94645
GPS BIIR-9  (PRN 21)    
1 27704U 03010A   15364.11239641  .00000001  00000-0  00000+0 0  9990
2 27704  53.5913 120.4579 0231011 254.2783 152.4122  2.00560370 93445
GPS BIIR-10 (PRN 22)    
1 28129U 03058A   15363.68915429  .00000045  00000-0  00000+0 0  9998
2 28129  52.8763 180.2494 0077056 244.4653 114.7395  2.00395396 88144
GPS BIIR-11 (PRN 19)    
1 28190U 04009A   15364.27334282 -.00000066  00000-0  00000+0 0  9995
2 28190  55.6847  67.1528 0111344  37.3130 348.2006  2.00387554 86323
GPS BIIR-12 (PRN 23)    
1 28361U 04023A   15364.56090338 -.00000006  00000-0  00000+0 0  9998
2 28361  54.2535 241.7778 0105075 211.0432 263.4610  2.00554279 84416
GPS BIIR-13 (PRN 02)    
1 28474U 04045A   15364.37163111  .00000001  00000-0  00000+0 0  9990
2 28474  53.9840 119.6992 0153754 234.8419 105.7819  2.00560915 81771
GPS BIIRM-1 (PRN 17)    
1 28874U 05038A   15363.91770773 -.00000066  00000-0  00000+0 0  9996
2 28874  55.8523  64.3541 0110675 247.3539 231.7345  2.00570705 75165
GPS BIIRM-2 (PRN 31)    
1 29486U 06042A   15364.48281420 -.00000065  00000-0  00000+0 0  9990
2 29486  55.7444 303.6394 0084429 331.8351 117.6008  2.00564800 67897
GPS BIIRM-3 (PRN 12)    
1 29601U 06052A   15363.80287740 -.00000080  00000-0  00000+0 0  9993
2 29601  56.7416   4.6414 0055246  34.5532 325.8254  2.00578272 66792
GPS BIIRM-4 (PRN 15)    
1 32260U 07047A   15363.62641822 -.00000002  00000-0  00000+0 0  9992
2 32260  53.3837 238.6354 0078467  24.8423 335.6138  2.00551359 60173
GPS BIIRM-5 (PRN 29)    
1 32384U 07062A   15363.93968887 -.00000066  00000-0  00000+0 0  9993
2 32384  55.9048  64.9014 0010952 315.6554  45.9160  2.00568003 58915
GPS BIIRM-6 (PRN 07)    
1 32711U 08012A   15364.03465969 -.00000065  00000-0  00000+0 0  9997
2 32711  55.4667 303.1594 0091249 207.8724 151.6503  2.00562715 57101
GPS BIIRM-8 (PRN 05)    
1 35752U 09043A   15364.42268362  .00000056  00000-0  00000+0 0  9990
2 35752  54.2250 181.1958 0044789  25.2502 284.7381  2.00559648 46689
GPS BIIF-1  (PRN 25)    
1 36585U 10022A   15364.10007141 -.00000080  00000-0  00000+0 0  9993
2 36585  56.0739   1.8142 0047361  37.6334 144.9362  2.00575068 40929
GPS BIIF-2  (PRN 01)    
1 37753U 11036A   15364.22819817  .00000007  00000-0  00000+0 0  9999
2 37753  55.2038 122.1276 0048186  25.5425 334.0488  2.00565611 32619
GPS BIIF-3  (PRN 24)    
1 38833U 12053A   15363.71929860 -.00000065  00000-0  00000+0 0  9997
2 38833  54.4998 300.6178 0039415  15.3076 344.8255  2.00567271 23685
GPS BIIF-4  (PRN 27)    
1 39166U 13023A   15364.07687970 -.00000069  00000-0  00000+0 0  9992
2 39166  55.5621  61.5381 0028805   8.8578 351.2479  2.00559283 19212
GPS BIIF-5  (PRN 30)    
1 39533U 14008A   15363.07834964 -.00000067  00000-0  00000+0 0  9998
2 39533  54.6529 305.8496 0016533 186.0027 173.9850  2.00565582 13564
GPS BIIF-6  (PRN 06)    
1 39741U 14026A   15363.85391971  .00000005  00000-0  00000+0 0  9992
2 39741  55.1952 121.6579 0003775 236.3948 123.5477  2.00571198 11858
GPS BIIF-7  (PRN 09)    
1 40105U 14045A   15363.94749090 -.00000004  00000-0  00000+0 0  9998
2 40105  54.7712 241.4236 0003345 123.6934 236.4178  2.00564296 10302
GPS BIIF-8  (PRN 03)    
1 40294U 14068A   15364.31018091  .00000056  00000-0  00000+0 0  9990
2 40294  54.9624 181.7678 0003573 204.5553 155.4351  2.00548984  8531
GPS BIIF-9  (PRN 26)    
1 40534U 15013A   15364.45237033 -.00000081  00000-0  00000+0 0  9991
2 40534  55.0447   1.4356 0007186 325.9329  34.0381  2.00562304  5609
GPS BIIF-10  (PRN 08)   
1 40730U 15033A   15364.11415856 -.00000070  00000-0  00000+0 0  9993
2 40730  55.0990  61.4501 0019143 271.8975  87.9374  2.00569327  3351
GPS BIIF-11  (PRN 10)   
1 41019U 15062A   15363.16873378  .00000045  00000-0  00000+0 0  9998
2 41019  54.9775 181.5760 0010073 203.3789 156.5825  2.00562004  1153
